1 55978U 23040A   24001.14658944  .00004788  00000-0  19407-3 0  9992
2 55978  97.6093 264.5762 0012948  41.8240 318.3984 15.25076787 43220